GLOBALSTAR M075 [+]     
1 37192U 10054E   23288.60018021 -.00000095  00000+0  47077-4 0  9996
2 37192  51.9938 240.6417 0000730  54.0086 116.7527 12.62254238598899
GLOBALSTAR M073 [+]     
1 37193U 10054F   23288.56403997 -.00000053  00000+0  28557-3 0  9997
2 37193  52.0042 154.1049 0000900  79.5011 287.6654 12.62268675600722
GLOBALSTAR M083 [+]     
1 37739U 11033A   23288.41815882 -.00000081  00000+0  12480-3 0  9994
2 37739  51.9843 104.1109 0000649  77.0082 288.3686 12.62270412569727
GLOBALSTAR M088 [+]     
1 37740U 11033B   23288.55216338 -.00000083  00000+0  11818-3 0  9998
2 37740  51.9762   9.7107 0000470  73.1109 300.6991 12.62266204565284
GLOBALSTAR M091 [+]     
1 37741U 11033C   23288.59879650 -.00000076  00000+0  15674-3 0  9991
2 37741  52.0014 332.0341 0000456  50.7357 114.3640 12.62267198566071
GLOBALSTAR M085 [+]     
1 37742U 11033D   23288.42307485 -.00000094  00000+0  56366-4 0  9990
2 37742  51.9861 284.1468 0000494  39.6560 107.2783 12.62263806566566
GLOBALSTAR M081 [+]     
1 37743U 11033E   23288.26224728 -.00000089  00000+0  81915-4 0  9993
2 37743  51.9952 287.0468 0000673  48.5766 327.0570 12.62265568566693
GLOBALSTAR M089 [+]     
1 37744U 11033F   23288.57431128 -.00000099  00000+0  27236-4 0  9999
2 37744  51.9921 240.4383 0000762  80.3121  93.8079 12.62268183567573
